43570,IRIDIUM 166,2018,100.4,860.0,+,86.39,Active,1,LEO,USA,USA,Commercial/Government,Communications,Falcon,1 43570U 18061B   24327.47225057  .00000248  00000+0  81577-4 0  9990,2 43570  86.3933 295.6448 0002144  80.6794 279.4644 14.34218453331453,14.34218453,0.0002144,LEO
43571,IRIDIUM 158,2018,100.4,860.0,+,86.39,Active,1,LEO,USA,USA,Commercial/Government,Communications,Falcon,1 43571U 18061C   24327.37076922  .00000254  00000+0  83756-4 0  9993,2 43571  86.3934 295.6972 0002428  82.6942 277.4529 14.34218980331409,14.3421898,0.0002428,LEO
43572,IRIDIUM 165,2018,100.4,860.0,+,86.39,Active,1,LEO,USA,USA,Commercial/Government,Communications,Falcon,1 43572U 18061D   24327.32637096  .00000331  00000+0  11098-3 0  9999,2 43572  86.3933 295.7511 0002122  87.8297 272.3142 14.34218950331424,14.3421895,0.0002122,LEO
43573,IRIDIUM 155,2018,100.4,860.0,+,86.39,Active,1,LEO,USA,USA,Commercial/Government,Communications,Falcon,1 43573U 18061E   24327.42785252  .00000306  00000+0  10234-3 0  9992,2 43573  86.3931 295.6043 0002258  81.8802 278.2650 14.34218497331412,14.34218497,0.0002258,LEO
43574,IRIDIUM 154,2018,100.4,860.0,+,86.39,Active,1,LEO,USA,USA,Commercial/Government,Communications,Falcon,1 43574U 18061F   24327.33905647  .00000248  00000+0  81396-4 0  9998,2 43574  86.3933 295.7482 0002243  89.6712 270.4741 14.34218171331440,14.34218171,0.0002243,LEO
43575,IRIDIUM 163,2018,100.4,860.0,+,86.39,Active,1,LEO,USA,USA,Commercial/Government,Communications,Falcon,1 43575U 18061G   24327.38979481  .00000703  00000+0  24402-3 0  9991,2 43575  86.3931 295.6608 0002478  86.4063 273.7416 14.34221537331425,14.34221537,0.0002478,LEO
43576,IRIDIUM 156,2018,100.4,860.0,+,86.39,Active,1,LEO,USA,USA,Commercial/Government,Communications,Falcon,1 43576U 18061H   24327.43419446  .00000078  00000+0  20657-4 0  9992,2 43576  86.3929 295.6487 0002216  77.5316 282.6128 14.34217647331415,14.34217647,0.0002216,LEO
43577,IRIDIUM 164,2018,100.4,860.0,+,86.39,Active,1,LEO,USA,USA,Commercial/Government,Communications,Falcon,1 43577U 18061J   24327.34539808  .00000273  00000+0  90362-4 0  9995,2 43577  86.3935 295.7170 0002001  86.7263 273.4162 14.34218309331454,14.34218309,0.0002001,LEO
